{"fetched_at":"2026-07-19T17:31:13.022Z","source":"https://celestrak.org/NORAD/elements/gp.php?GROUP=qianfan&FORMAT=JSON","constellation":"qianfan","records":[{"OBJECT_NAME":"QIANFAN-225","OBJECT_ID":"2026-155G","EPOCH":"2026-07-19T02:11:31.389792","CLASSIFICATION_TYPE":"U","MEAN_MOTION":14.22451285,"ECCENTRICITY":0.00293543,"INCLINATION":89.0063,"RA_OF_ASC_NODE":60.505,"ARG_OF_PERICENTER":210.7223,"MEAN_ANOMALY":149.2251,"EPHEMERIS_TYPE":0,"NORAD_CAT_ID":69854,"ELEMENT_SET_NO":999,"REV_AT_EPOCH":193,"BSTAR":0.000075878941,"MEAN_MOTION_DOT":0.00000184,"MEAN_MOTION_DDOT":0},{"OBJECT_NAME":"QIANFAN-226","OBJECT_ID":"2026-155H","EPOCH":"2026-07-19T02:09:26.520192","CLASSIFICATION_TYPE":"U","MEAN_MOTION":14.22559312,"ECCENTRICITY":0.00303752,"INCLINATION":89.0063,"RA_OF_ASC_NODE":60.5048,"ARG_OF_PERICENTER":210.3455,"MEAN_ANOMALY":149.598,"EPHEMERIS_TYPE":0,"NORAD_CAT_ID":69855,"ELEMENT_SET_NO":999,"REV_AT_EPOCH":193,"BSTAR":0.000076511685,"MEAN_MOTION_DOT":0.00000186,"MEAN_MOTION_DDOT":0},{"OBJECT_NAME":"QIANFAN-227","OBJECT_ID":"2026-155J","EPOCH":"2026-07-17T23:01:29.628480","CLASSIFICATION_TYPE":"U","MEAN_MOTION":14.20399872,"ECCENTRICITY":0.0030842,"INCLINATION":89.0062,"RA_OF_ASC_NODE":60.6317,"ARG_OF_PERICENTER":215.061,"MEAN_ANOMALY":144.855,"EPHEMERIS_TYPE":0,"NORAD_CAT_ID":69856,"ELEMENT_SET_NO":999,"REV_AT_EPOCH":177,"BSTAR":-1.0085763,"MEAN_MOTION_DOT":-0.02008388,"MEAN_MOTION_DDOT":0},{"OBJECT_NAME":"QIANFAN-228","OBJECT_ID":"2026-155K","EPOCH":"2026-07-17T23:00:18.463392","CLASSIFICATION_TYPE":"U","MEAN_MOTION":14.20295178,"ECCENTRICITY":0.00318777,"INCLINATION":89.0055,"RA_OF_ASC_NODE":60.6322,"ARG_OF_PERICENTER":218.7208,"MEAN_ANOMALY":141.1698,"EPHEMERIS_TYPE":0,"NORAD_CAT_ID":69857,"ELEMENT_SET_NO":999,"REV_AT_EPOCH":177,"BSTAR":-0.95328318,"MEAN_MOTION_DOT":-0.01902873,"MEAN_MOTION_DDOT":0},{"OBJECT_NAME":"QIANFAN-229","OBJECT_ID":"2026-155L","EPOCH":"2026-07-18T20:52:57.173088","CLASSIFICATION_TYPE":"U","MEAN_MOTION":14.26690212,"ECCENTRICITY":0.00308184,"INCLINATION":89.0064,"RA_OF_ASC_NODE":60.5275,"ARG_OF_PERICENTER":210.5909,"MEAN_ANOMALY":149.3489,"EPHEMERIS_TYPE":0,"NORAD_CAT_ID":69858,"ELEMENT_SET_NO":999,"REV_AT_EPOCH":190,"BSTAR":0.000060229541,"MEAN_MOTION_DOT":0.00000161,"MEAN_MOTION_DDOT":0},{"OBJECT_NAME":"QIANFAN-230","OBJECT_ID":"2026-155M","EPOCH":"2026-07-17T21:41:32.151840","CLASSIFICATION_TYPE":"U","MEAN_MOTION":14.16167691,"ECCENTRICITY":0.00329611,"INCLINATION":89.0054,"RA_OF_ASC_NODE":60.6411,"ARG_OF_PERICENTER":222.0372,"MEAN_ANOMALY":137.8286,"EPHEMERIS_TYPE":0,"NORAD_CAT_ID":69859,"ELEMENT_SET_NO":999,"REV_AT_EPOCH":176,"BSTAR":-1.0463152,"MEAN_MOTION_DOT":-0.01931944,"MEAN_MOTION_DDOT":0},{"OBJECT_NAME":"QIANFAN-231","OBJECT_ID":"2026-155N","EPOCH":"2026-07-18T22:39:37.495872","CLASSIFICATION_TYPE":"U","MEAN_MOTION":14.26097133,"ECCENTRICITY":0.00308993,"INCLINATION":89.0065,"RA_OF_ASC_NODE":60.5202,"ARG_OF_PERICENTER":209.7131,"MEAN_ANOMALY":150.2309,"EPHEMERIS_TYPE":0,"NORAD_CAT_ID":69860,"ELEMENT_SET_NO":999,"REV_AT_EPOCH":191,"BSTAR":0.000071810741,"MEAN_MOTION_DOT":0.00000187,"MEAN_MOTION_DDOT":0},{"OBJECT_NAME":"QIANFAN-232","OBJECT_ID":"2026-155P","EPOCH":"2026-07-18T00:40:47.018208","CLASSIFICATION_TYPE":"U","MEAN_MOTION":14.26736537,"ECCENTRICITY":0.00305938,"INCLINATION":89.0063,"RA_OF_ASC_NODE":60.6233,"ARG_OF_PERICENTER":214.1355,"MEAN_ANOMALY":145.7872,"EPHEMERIS_TYPE":0,"NORAD_CAT_ID":69861,"ELEMENT_SET_NO":999,"REV_AT_EPOCH":178,"BSTAR":0.00007652291,"MEAN_MOTION_DOT":0.000002,"MEAN_MOTION_DDOT":0},{"OBJECT_NAME":"QIANFAN-233","OBJECT_ID":"2026-155Q","EPOCH":"2026-07-19T00:14:30.733152","CLASSIFICATION_TYPE":"U","MEAN_MOTION":14.26752686,"ECCENTRICITY":0.00306545,"INCLINATION":89.0064,"RA_OF_ASC_NODE":60.5114,"ARG_OF_PERICENTER":210.5789,"MEAN_ANOMALY":149.3619,"EPHEMERIS_TYPE":0,"NORAD_CAT_ID":69862,"ELEMENT_SET_NO":999,"REV_AT_EPOCH":192,"BSTAR":0.000065051495,"MEAN_MOTION_DOT":0.00000173,"MEAN_MOTION_DDOT":0},{"OBJECT_NAME":"QIANFAN-234","OBJECT_ID":"2026-155R","EPOCH":"2026-07-19T05:17:24.143712","CLASSIFICATION_TYPE":"U","MEAN_MOTION":14.26759406,"ECCENTRICITY":0.00306534,"INCLINATION":89.0064,"RA_OF_ASC_NODE":60.4875,"ARG_OF_PERICENTER":209.8833,"MEAN_ANOMALY":150.0612,"EPHEMERIS_TYPE":0,"NORAD_CAT_ID":69863,"ELEMENT_SET_NO":999,"REV_AT_EPOCH":195,"BSTAR":0.000068118549,"MEAN_MOTION_DOT":0.0000018,"MEAN_MOTION_DDOT":0},{"OBJECT_NAME":"QIANFAN-235","OBJECT_ID":"2026-155S","EPOCH":"2026-07-19T05:17:19.295808","CLASSIFICATION_TYPE":"U","MEAN_MOTION":14.26765247,"ECCENTRICITY":0.00306071,"INCLINATION":89.0064,"RA_OF_ASC_NODE":60.4874,"ARG_OF_PERICENTER":209.9127,"MEAN_ANOMALY":150.0319,"EPHEMERIS_TYPE":0,"NORAD_CAT_ID":69864,"ELEMENT_SET_NO":999,"REV_AT_EPOCH":195,"BSTAR":0.000059699456,"MEAN_MOTION_DOT":0.0000016,"MEAN_MOTION_DDOT":0},{"OBJECT_NAME":"QIANFAN-236","OBJECT_ID":"2026-155T","EPOCH":"2026-07-19T01:55:16.036608","CLASSIFICATION_TYPE":"U","MEAN_MOTION":14.26770514,"ECCENTRICITY":0.00305619,"INCLINATION":89.0064,"RA_OF_ASC_NODE":60.5035,"ARG_OF_PERICENTER":210.4183,"MEAN_ANOMALY":149.5239,"EPHEMERIS_TYPE":0,"NORAD_CAT_ID":69865,"ELEMENT_SET_NO":999,"REV_AT_EPOCH":193,"BSTAR":0.000072758697,"MEAN_MOTION_DOT":0.00000191,"MEAN_MOTION_DDOT":0},{"OBJECT_NAME":"QIANFAN-237","OBJECT_ID":"2026-155U","EPOCH":"2026-07-19T05:17:08.166624","CLASSIFICATION_TYPE":"U","MEAN_MOTION":14.26778727,"ECCENTRICITY":0.00305511,"INCLINATION":89.0064,"RA_OF_ASC_NODE":60.4874,"ARG_OF_PERICENTER":209.9667,"MEAN_ANOMALY":149.9779,"EPHEMERIS_TYPE":0,"NORAD_CAT_ID":69866,"ELEMENT_SET_NO":999,"REV_AT_EPOCH":194,"BSTAR":0.00006613534,"MEAN_MOTION_DOT":0.00000175,"MEAN_MOTION_DDOT":0},{"OBJECT_NAME":"QIANFAN-238","OBJECT_ID":"2026-155V","EPOCH":"2026-07-19T05:17:02.087520","CLASSIFICATION_TYPE":"U","MEAN_MOTION":14.26786189,"ECCENTRICITY":0.00305304,"INCLINATION":89.0064,"RA_OF_ASC_NODE":60.4874,"ARG_OF_PERICENTER":210.0034,"MEAN_ANOMALY":149.9412,"EPHEMERIS_TYPE":0,"NORAD_CAT_ID":69867,"ELEMENT_SET_NO":999,"REV_AT_EPOCH":195,"BSTAR":0.000065039264,"MEAN_MOTION_DOT":0.00000173,"MEAN_MOTION_DDOT":0}]}
