QIANFAN-225             
1 69854U 26155G   26200.09133553  .00000184  00000+0  75879-4 0  9992
2 69854  89.0063  60.5050 0029354 210.7223 149.2251 14.22451285  1937
QIANFAN-226             
1 69855U 26155H   26200.08989028  .00000186  00000+0  76512-4 0  9995
2 69855  89.0063  60.5048 0030375 210.3455 149.5980 14.22559312  1935
QIANFAN-227             
1 69856U 26155J   26198.95937070 -.02008388  00000+0 -10086+1 0  9994
2 69856  89.0062  60.6317 0030842 215.0610 144.8550 14.20399872  1773
QIANFAN-228             
1 69857U 26155K   26198.95854703 -.01902873  00000+0 -95328+0 0  9998
2 69857  89.0055  60.6322 0031877 218.7208 141.1698 14.20295178  1771
QIANFAN-229             
1 69858U 26155L   26199.87010617  .00000161  00000+0  60230-4 0  9994
2 69858  89.0064  60.5275 0030818 210.5909 149.3489 14.26690212  1907
QIANFAN-230             
1 69859U 26155M   26198.90384435 -.01931944  00000+0 -10463+1 0  9994
2 69859  89.0054  60.6411 0032961 222.0372 137.8286 14.16167691  1763
QIANFAN-231             
1 69860U 26155N   26199.94418398  .00000187  00000+0  71811-4 0  9998
2 69860  89.0065  60.5202 0030899 209.7131 150.2309 14.26097133  1913
QIANFAN-232             
1 69861U 26155P   26199.02832197  .00000200  00000+0  76523-4 0  9996
2 69861  89.0063  60.6233 0030593 214.1355 145.7872 14.26736537  1783
QIANFAN-233             
1 69862U 26155Q   26200.01007793  .00000173  00000+0  65051-4 0  9998
2 69862  89.0064  60.5114 0030654 210.5789 149.3619 14.26752686  1929
QIANFAN-234             
1 69863U 26155R   26200.22041833  .00000180  00000+0  68119-4 0  9991
2 69863  89.0064  60.4875 0030653 209.8833 150.0612 14.26759406  1955
QIANFAN-235             
1 69864U 26155S   26200.22036222  .00000160  00000+0  59699-4 0  9999
2 69864  89.0064  60.4874 0030607 209.9127 150.0319 14.26765247  1955
QIANFAN-236             
1 69865U 26155T   26200.08004672  .00000191  00000+0  72759-4 0  9994
2 69865  89.0064  60.5035 0030561 210.4183 149.5239 14.26770514  1939
QIANFAN-237             
1 69866U 26155U   26200.22023341  .00000175  00000+0  66135-4 0  9998
2 69866  89.0064  60.4874 0030551 209.9667 149.9779 14.26778727  1947
QIANFAN-238             
1 69867U 26155V   26200.22016305  .00000173  00000+0  65039-4 0  9991
2 69867  89.0064  60.4874 0030530 210.0034 149.9412 14.26786189  1952
